[{"OBJECT_NAME":"STARLINK-34335","OBJECT_ID":"2025-126U","EPOCH":"2026-03-09T22:46:15.672864","MEAN_MOTION":14.98322549,"ECCENTRICITY":0.00032243,"INCLINATION":70.0025,"RA_OF_ASC_NODE":33.6858,"ARG_OF_PERICENTER":265.9862,"MEAN_ANOMALY":94.0928,"EPHEMERIS_TYPE":0,"CLASSIFICATION_TYPE":"U","NORAD_CAT_ID":64362,"ELEMENT_SET_NO":999,"REV_AT_EPOCH":4072,"BSTAR":0.0010766821,"MEAN_MOTION_DOT":0.00012775,"MEAN_MOTION_DDOT":0},{"OBJECT_NAME":"FENGYUN 1C DEB","OBJECT_ID":"1999-025SE","EPOCH":"2026-03-09T20:24:07.039872","MEAN_MOTION":14.23602546,"ECCENTRICITY":0.03405533,"INCLINATION":98.718,"RA_OF_ASC_NODE":172.0354,"ARG_OF_PERICENTER":91.4658,"MEAN_ANOMALY":34.7461,"EPHEMERIS_TYPE":0,"CLASSIFICATION_TYPE":"U","NORAD_CAT_ID":30125,"ELEMENT_SET_NO":999,"REV_AT_EPOCH":98160,"BSTAR":0.00090622309,"MEAN_MOTION_DOT":3.722e-5,"MEAN_MOTION_DDOT":0}]
